[{"OBJECT_NAME":"COSMOS 2538","OBJECT_ID":"2019-039D","EPOCH":"2026-03-09T23:22:28.343424","MEAN_MOTION":15.19536029,"ECCENTRICITY":0.00437345,"INCLINATION":97.5929,"RA_OF_ASC_NODE":147.7512,"ARG_OF_PERICENTER":31.8471,"MEAN_ANOMALY":328.5393,"EPHEMERIS_TYPE":0,"CLASSIFICATION_TYPE":"U","NORAD_CAT_ID":44424,"ELEMENT_SET_NO":999,"REV_AT_EPOCH":36483,"BSTAR":0.00035711669,"MEAN_MOTION_DOT":7.713e-5,"MEAN_MOTION_DDOT":0},{"OBJECT_NAME":"STARLINK-32419","OBJECT_ID":"2024-191S","EPOCH":"2026-03-09T22:41:36.160224","MEAN_MOTION":15.27559089,"ECCENTRICITY":3.759e-5,"INCLINATION":43.0018,"RA_OF_ASC_NODE":153.2252,"ARG_OF_PERICENTER":319.1931,"MEAN_ANOMALY":40.8892,"EPHEMERIS_TYPE":0,"CLASSIFICATION_TYPE":"U","NORAD_CAT_ID":61637,"ELEMENT_SET_NO":999,"REV_AT_EPOCH":7757,"BSTAR":-1.5465989e-5,"MEAN_MOTION_DOT":-6.87e-6,"MEAN_MOTION_DDOT":0}]
